[
  {
    "OBJECT_NAME": "STARLINK-32786",
    "OBJECT_ID": "25004T",
    "EPOCH": "2025-11-10T14:56:15.734112",
    "MEAN_MOTION": 15.27593283,
    "ECCENTRICITY": 0.0001238,
    "INCLINATION": 42.9978,
    "RA_OF_ASC_NODE": 171.8801,
    "ARG_OF_PERICENTER": 257.4772,
    "MEAN_ANOMALY": 102.5941,
    "EPHEMERIS_TYPE": 0,
    "CLASSIFICATION_TYPE": "U",
    "NORAD_CAT_ID": 62528,
    "ELEMENT_SET_NO": 999,
    "REV_AT_EPOCH": 4730,
    "BSTAR": 0.0008253000000000001,
    "MEAN_MOTION_DOT": 0.00022527,
    "MEAN_MOTION_DDOT": 0.0,
    "TLE_LINE1": "1 62528U 25004T   25314.62240433  .00022527  00000+0  82530-3 0  9991",
    "TLE_LINE2": "2 62528  42.9978 171.8801 0001238 257.4772 102.5941 15.27593283 47309",
    "COMMENT": "Grouped by shell and plane from TLE"
  },
  {
    "OBJECT_NAME": "STARLINK-32789",
    "OBJECT_ID": "25004U",
    "EPOCH": "2025-11-10T23:44:22.841664",
    "MEAN_MOTION": 15.27698552,
    "ECCENTRICITY": 0.0001458,
    "INCLINATION": 43.0009,
    "RA_OF_ASC_NODE": 170.3393,
    "ARG_OF_PERICENTER": 299.1636,
    "MEAN_ANOMALY": 60.907,
    "EPHEMERIS_TYPE": 0,
    "CLASSIFICATION_TYPE": "U",
    "NORAD_CAT_ID": 62529,
    "ELEMENT_SET_NO": 999,
    "REV_AT_EPOCH": 4830,
    "BSTAR": 0.002439,
    "MEAN_MOTION_DOT": 0.00067718,
    "MEAN_MOTION_DDOT": 0.0,
    "TLE_LINE1": "1 62529U 25004U   25314.98915326  .00067718  00000+0  24390-2 0  9991",
    "TLE_LINE2": "2 62529  43.0009 170.3393 0001458 299.1636  60.9070 15.27698552 48309",
    "COMMENT": "Grouped by shell and plane from TLE"
  },
  {
    "OBJECT_NAME": "STARLINK-32791",
    "OBJECT_ID": "25004V",
    "EPOCH": "2025-11-10T23:24:01.704672",
    "MEAN_MOTION": 15.27604969,
    "ECCENTRICITY": 0.0002677,
    "INCLINATION": 43.001,
    "RA_OF_ASC_NODE": 170.2307,
    "ARG_OF_PERICENTER": 257.1075,
    "MEAN_ANOMALY": 102.9478,
    "EPHEMERIS_TYPE": 0,
    "CLASSIFICATION_TYPE": "U",
    "NORAD_CAT_ID": 62530,
    "ELEMENT_SET_NO": 999,
    "REV_AT_EPOCH": 4830,
    "BSTAR": 0.0016608,
    "MEAN_MOTION_DOT": 0.00045762,
    "MEAN_MOTION_DDOT": 0.0,
    "TLE_LINE1": "1 62530U 25004V   25314.97501973  .00045762  00000+0  16608-2 0  9999",
    "TLE_LINE2": "2 62530  43.0010 170.2307 0002677 257.1075 102.9478 15.27604969 48300",
    "COMMENT": "Grouped by shell and plane from TLE"
  },
  {
    "OBJECT_NAME": "STARLINK-32785",
    "OBJECT_ID": "25004W",
    "EPOCH": "2025-11-10T23:55:30.599616",
    "MEAN_MOTION": 15.27623494,
    "ECCENTRICITY": 7.73e-05,
    "INCLINATION": 42.9974,
    "RA_OF_ASC_NODE": 170.408,
    "ARG_OF_PERICENTER": 280.8478,
    "MEAN_ANOMALY": 79.2287,
    "EPHEMERIS_TYPE": 0,
    "CLASSIFICATION_TYPE": "U",
    "NORAD_CAT_ID": 62531,
    "ELEMENT_SET_NO": 999,
    "REV_AT_EPOCH": 4830,
    "BSTAR": 0.0017977000000000002,
    "MEAN_MOTION_DOT": 0.00049605,
    "MEAN_MOTION_DDOT": 0.0,
    "TLE_LINE1": "1 62531U 25004W   25314.99688194  .00049605  00000+0  17977-2 0  9993",
    "TLE_LINE2": "2 62531  42.9974 170.4080 0000773 280.8478  79.2287 15.27623494 48301",
    "COMMENT": "Grouped by shell and plane from TLE"
  },
  {
    "OBJECT_NAME": "STARLINK-34280",
    "OBJECT_ID": "25137A",
    "EPOCH": "2025-11-10T23:53:38.502528",
    "MEAN_MOTION": 15.39676101,
    "ECCENTRICITY": 5.54e-05,
    "INCLINATION": 53.1604,
    "RA_OF_ASC_NODE": 170.7307,
    "ARG_OF_PERICENTER": 186.6737,
    "MEAN_ANOMALY": 173.4261,
    "EPHEMERIS_TYPE": 0,
    "CLASSIFICATION_TYPE": "U",
    "NORAD_CAT_ID": 64594,
    "ELEMENT_SET_NO": 999,
    "REV_AT_EPOCH": 2250,
    "BSTAR": 0.0016330000000000001,
    "MEAN_MOTION_DOT": 0.00065605,
    "MEAN_MOTION_DDOT": 0.0,
    "TLE_LINE1": "1 64594U 25137A   25314.99558452  .00065605  00000+0  16330-2 0  9994",
    "TLE_LINE2": "2 64594  53.1604 170.7307 0000554 186.6737 173.4261 15.39676101 22508",
    "COMMENT": "Grouped by shell and plane from TLE"
  },
  {
    "OBJECT_NAME": "STARLINK-34517",
    "OBJECT_ID": "25137B",
    "EPOCH": "2025-11-11T00:40:19.013376",
    "MEAN_MOTION": 15.39689221,
    "ECCENTRICITY": 2.64e-05,
    "INCLINATION": 53.1593,
    "RA_OF_ASC_NODE": 170.2218,
    "ARG_OF_PERICENTER": 2.1691,
    "MEAN_ANOMALY": 357.9315,
    "EPHEMERIS_TYPE": 0,
    "CLASSIFICATION_TYPE": "U",
    "NORAD_CAT_ID": 64595,
    "ELEMENT_SET_NO": 999,
    "REV_AT_EPOCH": 2251,
    "BSTAR": 0.001316,
    "MEAN_MOTION_DOT": 0.00052724,
    "MEAN_MOTION_DDOT": 0.0,
    "TLE_LINE1": "1 64595U 25137B   25315.02799784  .00052724  00000+0  13160-2 0  9991",
    "TLE_LINE2": "2 64595  53.1593 170.2218 0000264   2.1691 357.9315 15.39689221 22518",
    "COMMENT": "Grouped by shell and plane from TLE"
  },
  {
    "OBJECT_NAME": "STARLINK-34510",
    "OBJECT_ID": "25137C",
    "EPOCH": "2025-11-10T23:33:34.444224",
    "MEAN_MOTION": 15.39669334,
    "ECCENTRICITY": 0.0001308,
    "INCLINATION": 53.1632,
    "RA_OF_ASC_NODE": 170.6421,
    "ARG_OF_PERICENTER": 235.4799,
    "MEAN_ANOMALY": 124.6083,
    "EPHEMERIS_TYPE": 0,
    "CLASSIFICATION_TYPE": "U",
    "NORAD_CAT_ID": 64596,
    "ELEMENT_SET_NO": 999,
    "REV_AT_EPOCH": 2250,
    "BSTAR": 0.0013128,
    "MEAN_MOTION_DOT": 0.00052561,
    "MEAN_MOTION_DDOT": 0.0,
    "TLE_LINE1": "1 64596U 25137C   25314.98164866  .00052561  00000+0  13128-2 0  9996",
    "TLE_LINE2": "2 64596  53.1632 170.6421 0001308 235.4799 124.6083 15.39669334 22506",
    "COMMENT": "Grouped by shell and plane from TLE"
  },
  {
    "OBJECT_NAME": "STARLINK-34486",
    "OBJECT_ID": "25137D",
    "EPOCH": "2025-11-11T00:20:15.178848",
    "MEAN_MOTION": 15.39655251,
    "ECCENTRICITY": 4.52e-05,
    "INCLINATION": 53.1585,
    "RA_OF_ASC_NODE": 170.1321,
    "ARG_OF_PERICENTER": 85.2366,
    "MEAN_ANOMALY": 274.8691,
    "EPHEMERIS_TYPE": 0,
    "CLASSIFICATION_TYPE": "U",
    "NORAD_CAT_ID": 64597,
    "ELEMENT_SET_NO": 999,
    "REV_AT_EPOCH": 2251,
    "BSTAR": 0.0016027,
    "MEAN_MOTION_DOT": 0.00064326,
    "MEAN_MOTION_DDOT": 0.0,
    "TLE_LINE1": "1 64597U 25137D   25315.01406457  .00064326  00000+0  16027-2 0  9990",
    "TLE_LINE2": "2 64597  53.1585 170.1321 0000452  85.2366 274.8691 15.39655251 22515",
    "COMMENT": "Grouped by shell and plane from TLE"
  },
  {
    "OBJECT_NAME": "STARLINK-34463",
    "OBJECT_ID": "25137E",
    "EPOCH": "2025-11-11T00:06:52.834752",
    "MEAN_MOTION": 15.39651596,
    "ECCENTRICITY": 7.48e-05,
    "INCLINATION": 53.1589,
    "RA_OF_ASC_NODE": 170.074,
    "ARG_OF_PERICENTER": 78.8109,
    "MEAN_ANOMALY": 281.298,
    "EPHEMERIS_TYPE": 0,
    "CLASSIFICATION_TYPE": "U",
    "NORAD_CAT_ID": 64598,
    "ELEMENT_SET_NO": 999,
    "REV_AT_EPOCH": 2251,
    "BSTAR": 0.0013762,
    "MEAN_MOTION_DOT": 0.00055105,
    "MEAN_MOTION_DDOT": 0.0,
    "TLE_LINE1": "1 64598U 25137E   25315.00477818  .00055105  00000+0  13762-2 0  9997",
    "TLE_LINE2": "2 64598  53.1589 170.0740 0000748  78.8109 281.2980 15.39651596 22516",
    "COMMENT": "Grouped by shell and plane from TLE"
  },
  {
    "OBJECT_NAME": "STARLINK-34294",
    "OBJECT_ID": "25137F",
    "EPOCH": "2025-11-11T00:53:41.245152",
    "MEAN_MOTION": 15.39701649,
    "ECCENTRICITY": 0.0001073,
    "INCLINATION": 53.1582,
    "RA_OF_ASC_NODE": 170.2769,
    "ARG_OF_PERICENTER": 123.3691,
    "MEAN_ANOMALY": 236.7417,
    "EPHEMERIS_TYPE": 0,
    "CLASSIFICATION_TYPE": "U",
    "NORAD_CAT_ID": 64599,
    "ELEMENT_SET_NO": 999,
    "REV_AT_EPOCH": 2251,
    "BSTAR": 0.0018905,
    "MEAN_MOTION_DOT": 0.00076182,
    "MEAN_MOTION_DDOT": 0.0,
    "TLE_LINE1": "1 64599U 25137F   25315.03728293  .00076182  00000+0  18905-2 0  9999",
    "TLE_LINE2": "2 64599  53.1582 170.2769 0001073 123.3691 236.7417 15.39701649 22512",
    "COMMENT": "Grouped by shell and plane from TLE"
  },
  {
    "OBJECT_NAME": "STARLINK-34435",
    "OBJECT_ID": "25137J",
    "EPOCH": "2025-11-11T00:33:37.217952",
    "MEAN_MOTION": 15.39664877,
    "ECCENTRICITY": 9.47e-05,
    "INCLINATION": 53.1586,
    "RA_OF_ASC_NODE": 170.1901,
    "ARG_OF_PERICENTER": 279.8486,
    "MEAN_ANOMALY": 80.2412,
    "EPHEMERIS_TYPE": 0,
    "CLASSIFICATION_TYPE": "U",
    "NORAD_CAT_ID": 64602,
    "ELEMENT_SET_NO": 999,
    "REV_AT_EPOCH": 2251,
    "BSTAR": 0.0012558,
    "MEAN_MOTION_DOT": 0.00050235,
    "MEAN_MOTION_DDOT": 0.0,
    "TLE_LINE1": "1 64602U 25137J   25315.02334743  .00050235  00000+0  12558-2 0  9995",
    "TLE_LINE2": "2 64602  53.1586 170.1901 0000947 279.8486  80.2412 15.39664877 22514",
    "COMMENT": "Grouped by shell and plane from TLE"
  },
  {
    "OBJECT_NAME": "STARLINK-34475",
    "OBJECT_ID": "25137K",
    "EPOCH": "2025-11-11T00:26:57.835680",
    "MEAN_MOTION": 15.39669636,
    "ECCENTRICITY": 4.55e-05,
    "INCLINATION": 53.16,
    "RA_OF_ASC_NODE": 170.1594,
    "ARG_OF_PERICENTER": 41.486,
    "MEAN_ANOMALY": 318.6179,
    "EPHEMERIS_TYPE": 0,
    "CLASSIFICATION_TYPE": "U",
    "NORAD_CAT_ID": 64603,
    "ELEMENT_SET_NO": 999,
    "REV_AT_EPOCH": 2251,
    "BSTAR": 0.0013178,
    "MEAN_MOTION_DOT": 0.00052763,
    "MEAN_MOTION_DDOT": 0.0,
    "TLE_LINE1": "1 64603U 25137K   25315.01872495  .00052763  00000+0  13178-2 0  9993",
    "TLE_LINE2": "2 64603  53.1600 170.1594 0000455  41.4860 318.6179 15.39669636 22519",
    "COMMENT": "Grouped by shell and plane from TLE"
  },
  {
    "OBJECT_NAME": "STARLINK-34488",
    "OBJECT_ID": "25137L",
    "EPOCH": "2025-11-11T01:13:44.474016",
    "MEAN_MOTION": 15.39675814,
    "ECCENTRICITY": 8.76e-05,
    "INCLINATION": 53.1568,
    "RA_OF_ASC_NODE": 170.3634,
    "ARG_OF_PERICENTER": 76.8741,
    "MEAN_ANOMALY": 283.2362,
    "EPHEMERIS_TYPE": 0,
    "CLASSIFICATION_TYPE": "U",
    "NORAD_CAT_ID": 64604,
    "ELEMENT_SET_NO": 999,
    "REV_AT_EPOCH": 2251,
    "BSTAR": 0.0010706000000000001,
    "MEAN_MOTION_DOT": 0.00042742,
    "MEAN_MOTION_DDOT": 0.0,
    "TLE_LINE1": "1 64604U 25137L   25315.05120919  .00042742  00000+0  10706-2 0  9995",
    "TLE_LINE2": "2 64604  53.1568 170.3634 0000876  76.8741 283.2362 15.39675814 22513",
    "COMMENT": "Grouped by shell and plane from TLE"
  }
]